{
    "links": {
        "self": "http://www.neowsapp.com/rest/v1/neo/3582512?api_key=iIulBulltgU6a56xZRHN4H3l9WmuAYTsLGpBGhQ2"
    },
    "id": "3582512",
    "neo_reference_id": "3582512",
    "name": "(2011 UR63)",
    "designation": "2011 UR63",
    "nasa_jpl_url": "http://ssd.jpl.nasa.gov/sbdb.cgi?sstr=3582512",
    "absolute_magnitude_h": 25.8,
    "estimated_diameter": {
        "kilometers": {
            "estimated_diameter_min": 0.0183888672,
            "estimated_diameter_max": 0.0411187571
        },
        "meters": {
            "estimated_diameter_min": 18.388867207,
            "estimated_diameter_max": 41.1187571041
        },
        "miles": {
            "estimated_diameter_min": 0.0114263088,
            "estimated_diameter_max": 0.0255500032
        },
        "feet": {
            "estimated_diameter_min": 60.3309310875,
            "estimated_diameter_max": 134.9040630575
        }
    },
    "is_potentially_hazardous_asteroid": false,
    "close_approach_data": [
        {
            "close_approach_date": "2011-10-18",
            "close_approach_date_full": "2011-Oct-18 14:59",
            "epoch_date_close_approach": 1318949940000,
            "relative_velocity": {
                "kilometers_per_second": "12.8443596126",
                "kilometers_per_hour": "46239.6946055029",
                "miles_per_hour": "28731.5480175137"
            },
            "miss_distance": {
                "astronomical": "0.0248588155",
                "lunar": "9.6700792295",
                "kilometers": "3718825.849522985",
                "miles": "2310771.231007793"
            },
            "orbiting_body": "Earth"
        }
    ],
    "orbital_data": {
        "orbit_id": "6",
        "orbit_determination_date": "2017-04-06 08:52:21",
        "first_observation_date": "2011-10-21",
        "last_observation_date": "2011-11-02",
        "data_arc_in_days": 12,
        "observations_used": 28,
        "orbit_uncertainty": "9",
        "minimum_orbit_intersection": ".00807848",
        "jupiter_tisserand_invariant": "3.376",
        "epoch_osculation": "2455860.5",
        "eccentricity": ".5960173883262599",
        "semi_major_axis": "2.237475671758351",
        "inclination": "4.054579433515438",
        "ascending_node_longitude": "208.1175113224065",
        "orbital_period": "1222.463524710806",
        "perihelion_distance": ".9039012654333944",
        "perihelion_argument": "131.7604435060097",
        "aphelion_distance": "3.571050078083307",
        "perihelion_time": "2455820.699522680917",
        "mean_anomaly": "11.72073566633365",
        "mean_motion": ".2944873141185657",
        "equinox": "J2000",
        "orbit_class": {
            "orbit_class_type": "APO",
            "orbit_class_description": "Near-Earth asteroid orbits which cross the Earth’s orbit similar to that of 1862 Apollo",
            "orbit_class_range": "a (semi-major axis) > 1.0 AU; q (perihelion) < 1.017 AU"
        }
    },
    "is_sentry_object": false
}